OBJECT_NAME,OBJECT_ID,EPOCH,MEAN_MOTION,ECCENTRICITY,INCLINATION,RA_OF_ASC_NODE,ARG_OF_PERICENTER,MEAN_ANOMALY,EPHEMERIS_TYPE,CLASSIFICATION_TYPE,NORAD_CAT_ID,ELEMENT_SET_NO,REV_AT_EPOCH,BSTAR,MEAN_MOTION_DOT,MEAN_MOTION_DDOT
STARLINK-37040,2026-123K,2026-06-20T07:19:02.388000,15.80897912,.00011785,53.1578,225.8494,85.6087,274.5070,0,U,69362,999,253,.67528517E-3,.134835E-2,0
STARLINK-37582,2026-123L,2026-06-20T06:28:40.058112,15.75278352,.00012091,53.1582,226.3563,85.9316,274.1842,0,U,69363,999,252,.13387617E-2,.210114E-2,0
STARLINK-37309,2026-123M,2026-06-20T05:33:19.554048,15.80918388,.0001008,53.1578,226.0977,92.0660,268.0478,0,U,69364,999,252,.90674054E-3,.182474E-2,0
STARLINK-37436,2026-123N,2026-06-20T05:28:52.534848,15.80924576,.00008304,53.1577,226.0763,82.7621,277.3497,0,U,69365,999,252,.98268335E-3,.198239E-2,0
STARLINK-37581,2026-123P,2026-06-20T05:34:17.329728,15.80916885,.00011602,53.1574,226.1017,87.9562,272.1594,0,U,69366,999,252,.92521696E-3,.186277E-2,0
STARLINK-37683,2026-123Q,2026-06-20T06:00:02.000160,15.75256362,.0000889,53.1592,226.0782,108.5822,320.8032,0,U,69367,999,364,-.22845036E-3,-.35536E-3,0
STARLINK-37687,2026-123R,2026-06-20T05:22:26.986944,15.80914780,.00009622,53.1580,226.0463,80.1703,279.9428,0,U,69368,999,252,.83487303E-3,.167637E-2,0
STARLINK-37631,2026-123S,2026-06-20T05:23:35.533248,15.80888390,.00013611,53.1579,226.0513,83.0536,277.0642,0,U,69369,999,252,.61426749E-3,.122356E-2,0
STARLINK-37673,2026-123T,2026-06-19T12:41:34.429344,15.80917343,.00013956,53.1574,229.5339,25.6334,334.4758,0,U,69370,999,241,.83487791E-3,.167659E-2,0
STARLINK-37645,2026-123U,2026-06-20T05:25:40.493568,15.80929570,.00011481,53.1572,226.0607,58.8312,301.2824,0,U,69371,999,252,.98152949E-3,.198046E-2,0
STARLINK-37688,2026-123V,2026-06-20T05:21:57.994560,15.80883045,.00014236,53.1572,226.0424,74.7720,285.3460,0,U,69372,999,252,.56452509E-3,.112231E-2,0
STARLINK-37685,2026-123W,2026-06-20T05:21:13.947840,15.80915535,.00009493,53.1575,226.0391,87.7846,272.3286,0,U,69373,999,252,.83051091E-3,.166746E-2,0
STARLINK-37632,2026-123X,2026-06-20T05:20:10.325472,15.80890254,.00014732,53.1577,226.0340,69.6690,290.4491,0,U,69374,999,252,.65561883E-3,.130781E-2,0
STARLINK-37454,2026-123Y,2026-06-20T05:18:35.371872,15.80887620,.00012858,53.1576,226.0261,67.5213,292.5946,0,U,69375,999,252,.68711652E-3,.137182E-2,0
STARLINK-37485,2026-123Z,2026-06-20T05:17:31.354656,15.80926143,.00009436,53.1574,226.0205,84.4338,275.6792,0,U,69376,999,252,.96468086E-3,.194523E-2,0
STARLINK-37439,2026-123AA,2026-06-20T06:38:18.780000,15.80897785,.00011688,53.1577,225.6558,78.7551,281.3603,0,U,69377,999,253,.71523368E-3,.142988E-2,0
STARLINK-37376,2026-123AB,2026-06-20T06:00:02.000160,15.75247541,.00011264,53.1597,225.9163,95.3707,51.2829,0,U,69378,999,379,-.16591011E-3,-.26002E-3,0
STARLINK-37383,2026-123AC,2026-06-20T06:33:13.733568,15.80893569,.00013034,53.1575,225.6304,80.3881,279.7289,0,U,69379,999,253,.64452241E-3,.128541E-2,0
STARLINK-37411,2026-123AD,2026-06-20T06:40:15.880512,15.80909538,.00012583,53.1576,225.6646,92.7515,267.3651,0,U,69380,999,253,.61899886E-3,.12344E-2,0
STARLINK-37427,2026-123AE,2026-06-20T06:34:21.423648,15.80901446,.00012589,53.1574,225.6359,101.3070,258.8095,0,U,69381,999,253,.60656069E-3,.120864E-2,0
QIANFAN-165,2026-124A,2026-06-20T05:23:50.331840,14.16012679,.00031586,88.9984,1.6966,115.1924,244.9592,0,U,69382,999,224,.21050214E-4,.56E-6,0
QIANFAN-166,2026-124B,2026-06-20T05:14:11.552928,14.17059875,.00027516,88.9984,1.6958,106.0285,254.1206,0,U,69383,999,224,.37220595E-4,.89E-6,0
QIANFAN-167,2026-124C,2026-06-20T05:16:05.448000,14.16526346,.00022512,88.9984,1.6958,151.7891,208.3419,0,U,69384,999,224,.32965969E-4,.8E-6,0
QIANFAN-168,2026-124D,2026-06-20T05:06:35.094816,14.17873219,.00033332,88.9983,1.6949,127.2136,232.9358,0,U,69385,999,224,.29234828E-4,.74E-6,0
QIANFAN-169,2026-124E,2026-06-20T06:43:29.350848,14.18286862,.00034586,88.9983,1.6863,144.6442,215.4977,0,U,69386,999,225,.35101644E-4,.87E-6,0
QIANFAN-170,2026-124F,2026-06-20T06:36:56.105568,14.19183791,.00032735,88.9983,1.6856,121.7754,238.3755,0,U,69387,999,225,.29246443E-4,.76E-6,0
QIANFAN-171,2026-124G,2026-06-20T06:29:55.692672,14.20068350,.00022942,88.9984,1.6849,168.7246,191.3996,0,U,69388,999,225,.16771529E-3,.371E-5,0
QIANFAN-172,2026-124H,2026-06-20T06:32:54.735936,14.19638484,.00026746,88.9984,1.6852,145.3504,214.7860,0,U,69389,999,225,.29941345E-4,.78E-6,0
QIANFAN-173,2026-124J,2026-06-20T06:26:40.041600,14.20509922,.00029928,88.9984,1.6846,135.9277,224.2152,0,U,69390,999,225,.30433965E-4,.8E-6,0
QIANFAN-174,2026-124K,2026-06-20T06:21:09.901152,14.20878396,.00031573,88.9983,1.6840,143.3090,216.8318,0,U,69391,999,225,.44367301E-4,.11E-5,0
