STARLINK-37040          
1 69362U 26123K   26171.30488875  .00134835  00000+0  67529-3 0  9995
2 69362  53.1578 225.8494 0001178  85.6087 274.5070 15.80897912  2537
STARLINK-37582          
1 69363U 26123L   26171.26990808  .00210114  00000+0  13388-2 0  9993
2 69363  53.1582 226.3563 0001209  85.9316 274.1842 15.75278352  2526
STARLINK-37309          
1 69364U 26123M   26171.23147632  .00182474  00000+0  90674-3 0  9991
2 69364  53.1578 226.0977 0001008  92.0660 268.0478 15.80918388  2529
STARLINK-37436          
1 69365U 26123N   26171.22838582  .00198239  00000+0  98268-3 0  9995
2 69365  53.1577 226.0763 0000830  82.7621 277.3497 15.80924576  2527
STARLINK-37581          
1 69366U 26123P   26171.23214502  .00186277  00000+0  92522-3 0  9993
2 69366  53.1574 226.1017 0001160  87.9562 272.1594 15.80916885  2521
STARLINK-37683          
1 69367U 26123Q   26171.25002315 -.00035536  00000+0 -22845-3 0  9997
2 69367  53.1592 226.0782 0000889 108.5822 320.8032 15.75256362  3649
STARLINK-37687          
1 69368U 26123R   26171.22392346  .00167637  00000+0  83487-3 0  9996
2 69368  53.1580 226.0463 0000962  80.1703 279.9428 15.80914780  2528
STARLINK-37631          
1 69369U 26123S   26171.22471682  .00122356  00000+0  61427-3 0  9997
2 69369  53.1579 226.0513 0001361  83.0536 277.0642 15.80888390  2527
STARLINK-37673          
1 69370U 26123T   26170.52887071  .00167659  00000+0  83488-3 0  9990
2 69370  53.1574 229.5339 0001395  25.6334 334.4758 15.80917343  2418
STARLINK-37645          
1 69371U 26123U   26171.22616312  .00198046  00000+0  98153-3 0  9996
2 69371  53.1572 226.0607 0001148  58.8312 301.2824 15.80929570  2520
STARLINK-37688          
1 69372U 26123V   26171.22358790  .00112231  00000+0  56453-3 0  9999
2 69372  53.1572 226.0424 0001423  74.7720 285.3460 15.80883045  2528
STARLINK-37685          
1 69373U 26123W   26171.22307810  .00166746  00000+0  83051-3 0  9991
2 69373  53.1575 226.0391 0000949  87.7846 272.3286 15.80915535  2522
STARLINK-37632          
1 69374U 26123X   26171.22234173  .00130781  00000+0  65562-3 0  9990
2 69374  53.1577 226.0340 0001473  69.6690 290.4491 15.80890254  2527
STARLINK-37454          
1 69375U 26123Y   26171.22124273  .00137182  00000+0  68712-3 0  9992
2 69375  53.1576 226.0261 0001285  67.5213 292.5946 15.80887620  2529
STARLINK-37485          
1 69376U 26123Z   26171.22050179  .00194523  00000+0  96468-3 0  9997
2 69376  53.1574 226.0205 0000943  84.4338 275.6792 15.80926143  2527
STARLINK-37439          
1 69377U 26123AA  26171.27660625  .00142988  00000+0  71523-3 0  9999
2 69377  53.1577 225.6558 0001168  78.7551 281.3603 15.80897785  2535
STARLINK-37376          
1 69378U 26123AB  26171.25002315 -.00026002  00000+0 -16591-3 0  9998
2 69378  53.1597 225.9163 0001126  95.3707  51.2829 15.75247541  3791
STARLINK-37383          
1 69379U 26123AC  26171.27307562  .00128541  00000+0  64452-3 0  9991
2 69379  53.1575 225.6304 0001303  80.3881 279.7289 15.80893569  2537
STARLINK-37411          
1 69380U 26123AD  26171.27796158  .00123440  00000+0  61900-3 0  9994
2 69380  53.1576 225.6646 0001258  92.7515 267.3651 15.80909538  2539
STARLINK-37427          
1 69381U 26123AE  26171.27385907  .00120864  00000+0  60656-3 0  9995
2 69381  53.1574 225.6359 0001258 101.3070 258.8095 15.80901446  2539
QIANFAN-165             
1 69382U 26124A   26171.22488810  .00000056  00000+0  21050-4 0  9995
2 69382  88.9984   1.6966 0003158 115.1924 244.9592 14.16012679  2244
QIANFAN-166             
1 69383U 26124B   26171.21818927  .00000089  00000+0  37221-4 0  9994
2 69383  88.9984   1.6958 0002751 106.0285 254.1206 14.17059875  2248
QIANFAN-167             
1 69384U 26124C   26171.21950750  .00000080  00000+0  32966-4 0  9998
2 69384  88.9984   1.6958 0002251 151.7891 208.3419 14.16526346  2242
QIANFAN-168             
1 69385U 26124D   26171.21290619  .00000074  00000+0  29235-4 0  9998
2 69385  88.9983   1.6949 0003333 127.2136 232.9358 14.17873219  2244
QIANFAN-169             
1 69386U 26124E   26171.28020082  .00000087  00000+0  35102-4 0  9995
2 69386  88.9983   1.6863 0003458 144.6442 215.4977 14.18286862  2258
QIANFAN-170             
1 69387U 26124F   26171.27564937  .00000076  00000+0  29246-4 0  9997
2 69387  88.9983   1.6856 0003273 121.7754 238.3755 14.19183791  2254
QIANFAN-171             
1 69388U 26124G   26171.27078348  .00000371  00000+0  16772-3 0  9991
2 69388  88.9984   1.6849 0002294 168.7246 191.3996 14.20068350  2257
QIANFAN-172             
1 69389U 26124H   26171.27285574  .00000078  00000+0  29941-4 0  9990
2 69389  88.9984   1.6852 0002674 145.3504 214.7860 14.19638484  2251
QIANFAN-173             
1 69390U 26124J   26171.26851900  .00000080  00000+0  30434-4 0  9995
2 69390  88.9984   1.6846 0002992 135.9277 224.2152 14.20509922  2257
QIANFAN-174             
1 69391U 26124K   26171.26469793  .00000110  00000+0  44367-4 0  9995
2 69391  88.9983   1.6840 0003157 143.3090 216.8318 14.20878396  2256
